CZ-4B R/B               
1 28415U 04035C   25282.32658635  .00008551  00000+0  32997-3 0  9990
2 28415  97.3693 313.5646 0035648 142.4076 217.9665 15.25932141156806
CZ-2C R/B               
1 28480U 04046B   25282.30651519  .00000250  00000+0  10865-3 0  9994
2 28480  98.1924 201.7098 0138382 242.3659 116.3417 14.26899228 86918
ARIANE 5 R/B            
1 28499U 04049H   25282.43512442  .00001590  00000+0  18238-3 0  9992
2 28499  98.2492  80.4376 0085929 120.8280 240.1425 14.84809740123346
CZ-2D R/B               
1 28738U 05024B   25282.59375324  .00025617  00000+0  47564-3 0  9995
2 28738  97.3695 288.5388 0004571 191.1640 168.9510 15.48908366116312
ALOS (DAICHI)           
1 28931U 06002A   25282.61412384  .00002032  00000+0  35362-3 0  9997
2 28931  98.0978 234.6065 0002331  73.3029 286.8433 14.69161956 51294
H-2A R/B                
1 28932U 06002B   25282.33380778  .00008384  00000+0  46133-3 0  9992
2 28932  98.2267  51.9373 0056711  36.2436 324.2614 15.12950737 71529
RESURS-DK 1             
1 29228U 06021A   25282.38949709  .00003152  00000+0  19122-3 0  9998
2 29228  69.9327 268.0687 0006291 316.2989  43.7678 15.11623504 64658
CZ-4B R/B               
1 29507U 06046C   25282.58728841  .00005987  00000+0  31950-3 0  9990
2 29507  97.5831 322.9042 0036257  71.6535 288.8635 15.14950597 37152
CZ-2C R/B               
1 31114U 07010B   25282.32457744  .00000162  00000+0  93327-4 0  9999
2 31114  98.3925  38.2361 0059288  15.4757 344.8216 14.20173692958232
COSMO-SKYMED 1          
1 31598U 07023A   25282.61962612  .00003404  00000+0  31579-3 0  9998
2 31598  97.8883 107.6210 0001362  82.3562 277.7813 14.95114668992310
COSMOS 2428             
1 31792U 07029A   25282.38318203 -.00000203  00000+0 -83520-4 0  9995
2 31792  70.9406 160.9859 0002281 175.1433 184.9711 14.12900296942724
SL-16 R/B               
1 31793U 07029B   25282.35518084  .00000183  00000+0  11953-3 0  9997
2 31793  70.9740 130.4953 0002500 266.1538 266.3177 14.14801597943968
KORONAS-FOTON           
1 33504U 09003A   25282.49771732  .00013946  00000+0  35898-3 0  9994
2 33504  82.4303  72.5502 0011406 345.0406  15.0499 15.39035826922454
CZ-2C R/B               
1 37731U 11030B   25282.47465429  .00001678  00000+0  22022-3 0  9998
2 37731  97.8298 238.0607 0054520 121.4437 353.1990 14.80568456767715
H-2A R/B                
1 38341U 12025E   25282.41526774  .00004436  00000+0  41574-3 0  9994
2 38341  98.4487 232.7618 0047599  87.3736 273.2929 14.93755518725622
SHIJIAN-16 (SJ-16)      
1 39358U 13057A   25282.62484234  .00001335  00000+0  13535-3 0  9997
2 39358  74.9695 110.9348 0016184 121.3444 238.9330 14.91664204648974
SL-4 R/B                
1 39679U 14021B   25282.50669944  .00013536  00000+0  34471-3 0  9993
2 39679  51.6103 352.1840 0106701 274.0850  84.7941 15.34200029633029
ALOS-2                  
1 39766U 14029A   25282.62708803  .00002293  00000+0  31383-3 0  9996
2 39766  97.9229  18.3870 0001441  97.7381 262.3994 14.79476282614537
YAOGAN-29               
1 41038U 15069A   25282.64642441  .00000578  00000+0  78294-4 0  9990
2 41038  98.0294 305.5872 0002842 105.6477 254.5050 14.82776804533498
ASTRO-H (HITOMI)        
1 41337U 16012A   25282.33185861  .00004167  00000+0  25285-3 0  9994
2 41337  31.0000 252.4038 0010289 251.4426 108.5095 15.08759193529341
HXMT (HUIYAN)           
1 42758U 17034A   25282.67211524  .00006351  00000+0  33980-3 0  9998
2 42758  43.0126 134.8753 0033248 358.7320   1.3439 15.15201729459611
CZ-2C R/B               
1 43521U 18054D   25282.34156521  .00071302  00000+0  77032-3 0  9993
2 43521  35.1367 253.2783 0030832 248.0293 111.7158 15.61819221404947
SAOCOM 1A               
1 43641U 18076A   25280.98410525  .00000743  00000+0  99917-4 0  9993
2 43641  97.8892 106.3519 0001312  88.1872 271.9491 14.82166101378741
H-2A R/B                
1 43682U 18084L   25282.51667845  .00019871  00000+0  59320-3 0  9992
2 43682  98.8832 103.4477 0029501 184.7281 175.3683 15.34250206382540
SAOCOM 1B               
1 46265U 20059A   25282.63566505  .00000613  00000+0  83580-4 0  9991
2 46265  97.8879 107.0847 0001342  92.0068 268.1299 14.82150557276375
CSS (TIANHE)            
1 48274U 21035A   25282.56510440  .00034901  00000+0  39992-3 0  9991
2 48274  41.4660  46.7639 0002896 218.5398 141.5235 15.61384117254003
COSMOS 2550             
1 48865U 21056A   25282.62701361 -.00000179  00000+0  39312-6 0  9991
2 48865  67.1405 137.9236 0008294 270.2161  89.8043 15.33825228240297
CZ-2C R/B               
1 52794U 22058K   25282.50755194  .00023620  00000+0  48676-3 0  9995
2 52794  50.1940  10.0333 0052893 290.2232  69.3051 15.44234172186692
GSLV R/B                
1 54149U 22138AN  25282.30093915  .00005037  00000+0  44986-3 0  9996
2 54149  87.3844 217.0315 0021431 349.7883  10.2910 14.95561555161299
XRISM                   
1 57800U 23137A   25282.04690241  .00008624  00000+0  52101-3 0  9992
2 57800  31.0017 182.9115 0008571 313.4499  46.5426 15.09348162114849
ACS3                    
1 59588U 24077B   25282.46270966  .00013695  00000+0  12730-1 0  9991
2 59588  97.3713 252.2121 0021992 339.0600  20.9657 13.82019820 73256
